start=new Date('2023-06-09T00:00:00.000Z').valueOf();
sats=[{"TIME_SYSTEM":"UTC","PERIOD":"95.437","TLE_LINE2":"2 50183  53.2167  83.4953 0001074  98.9708 261.1406 15.08853132 84837","REV_AT_EPOCH":"8483","ELEMENT_SET_NO":"999","OBJECT_ID":"2021-125AD","COUNTRY_CODE":"US","APOAPSIS":"540.448","PERIAPSIS":"538.962","CLASSIFICATION_TYPE":"U","REF_FRAME":"TEME","FILE":"3928007","MEAN_MOTION_DDOT":"0.0000000000000","MEAN_MOTION":"15.08853132","MEAN_ANOMALY":"261.1406","RCS_SIZE":"LARGE","GP_ID":"233471274","EPOCH":"2023-06-08T01:48:34.980768","SITE":"AFWTR","BSTAR":"0.00035549000000","CENTER_NAME":"EARTH","EPHEMERIS_TYPE":"0","SEMIMAJOR_AXIS":"6917.840","ECCENTRICITY":"0.00010740","DECAY_DATE":null,"OBJECT_TYPE":"PAYLOAD","OBJECT_NAME":"STARLINK-3281","INCLINATION":"53.2167","TLE_LINE1":"1 50183U 21125AD  23159.07540487  .00005376  00000-0  35549-3 0  9993","LAUNCH_DATE":"2021-12-18","MEAN_MOTION_DOT":"0.00005376","NORAD_CAT_ID":"50183","RA_OF_ASC_NODE":"83.4953","MEAN_ELEMENT_THEORY":"SGP4","ARG_OF_PERICENTER":"98.9708"},{"OBJECT_NAME":"STARLINK-3279","INCLINATION":"53.2176","LAUNCH_DATE":"2021-12-18","TLE_LINE1":"1 50185U 21125AF  23159.07634908  .00000330  00000-0  38857-4 0  9998","MEAN_MOTION_DOT":"0.00000330","DECAY_DATE":null,"ECCENTRICITY":"0.00014290","OBJECT_TYPE":"PAYLOAD","ARG_OF_PERICENTER":"95.5342","NORAD_CAT_ID":"50185","RA_OF_ASC_NODE":"83.4260","MEAN_ELEMENT_THEORY":"SGP4","REF_FRAME":"TEME","MEAN_MOTION_DDOT":"0.0000000000000","FILE":"3928007","MEAN_MOTION":"15.08838022","MEAN_ANOMALY":"264.5813","RCS_SIZE":"LARGE","TIME_SYSTEM":"UTC","REV_AT_EPOCH":"8479","TLE_LINE2":"2 50185  53.2176  83.4260 0001429  95.5342 264.5813 15.08838022 84796","PERIOD":"95.438","OBJECT_ID":"2021-125AF","ELEMENT_SET_NO":"999","COUNTRY_CODE":"US","APOAPSIS":"540.740","PERIAPSIS":"538.763","CLASSIFICATION_TYPE":"U","CENTER_NAME":"EARTH","EPHEMERIS_TYPE":"0","SEMIMAJOR_AXIS":"6917.886","GP_ID":"233472026","EPOCH":"2023-06-08T01:49:56.560512","SITE":"AFWTR","BSTAR":"0.00003885700000"},{"OBJECT_NAME":"STARLINK-3274","INCLINATION":"53.2171","LAUNCH_DATE":"2021-12-18","TLE_LINE1":"1 50186U 21125AG  23159.22903263 -.00002209  00000-0 -12072-3 0  9998","MEAN_MOTION_DOT":"-0.00002209","ECCENTRICITY":"0.00010270","DECAY_DATE":null,"OBJECT_TYPE":"PAYLOAD","ARG_OF_PERICENTER":"96.4098","NORAD_CAT_ID":"50186","RA_OF_ASC_NODE":"92.8050","MEAN_ELEMENT_THEORY":"SGP4","REF_FRAME":"TEME","MEAN_MOTION_DDOT":"0.0000000000000","FILE":"3928007","MEAN_MOTION":"15.08852827","MEAN_ANOMALY":"263.7011","RCS_SIZE":"LARGE","TIME_SYSTEM":"UTC","REV_AT_EPOCH":"8466","TLE_LINE2":"2 50186  53.2171  92.8050 0001027  96.4098 263.7011 15.08852827 84661","PERIOD":"95.437","ELEMENT_SET_NO":"999","OBJECT_ID":"2021-125AG","COUNTRY_CODE":"US","PERIAPSIS":"538.996","APOAPSIS":"540.417","CLASSIFICATION_TYPE":"U","CENTER_NAME":"EARTH","EPHEMERIS_TYPE":"0","SEMIMAJOR_AXIS":"6917.841","GP_ID":"233472274","EPOCH":"2023-06-08T05:29:48.419232","SITE":"AFWTR","BSTAR":"-0.00012072000000"},{"GP_ID":"233480725","EPOCH":"2023-06-08T04:34:10.719840","SITE":"AFWTR","BSTAR":"-0.00001568100000","CENTER_NAME":"EARTH","EPHEMERIS_TYPE":"0","SEMIMAJOR_AXIS":"6917.889","TIME_SYSTEM":"UTC","REV_AT_EPOCH":"8185","TLE_LINE2":"2 50187  53.2176  72.9810 0001031  88.7949 271.3162 15.08837235 81850","PERIOD":"95.438","OBJECT_ID":"2021-125AH","ELEMENT_SET_NO":"999","COUNTRY_CODE":"US","APOAPSIS":"540.467","PERIAPSIS":"539.041","CLASSIFICATION_TYPE":"U","REF_FRAME":"TEME","FILE":"3928163","MEAN_MOTION_DDOT":"0.0000000000000","MEAN_MOTION":"15.08837235","MEAN_ANOMALY":"271.3162","RCS_SIZE":"LARGE","NORAD_CAT_ID":"50187","RA_OF_ASC_NODE":"72.9810","MEAN_ELEMENT_THEORY":"SGP4","ARG_OF_PERICENTER":"88.7949","DECAY_DATE":null,"ECCENTRICITY":"0.00010310","OBJECT_TYPE":"PAYLOAD","OBJECT_NAME":"STARLINK-3272","INCLINATION":"53.2176","TLE_LINE1":"1 50187U 21125AH  23159.19040185 -.00000537  00000-0 -15681-4 0  9992","LAUNCH_DATE":"2021-12-18","MEAN_MOTION_DOT":"-0.00000537"},{"COUNTRY_CODE":"US","OBJECT_ID":"2021-125AJ","ELEMENT_SET_NO":"999","CLASSIFICATION_TYPE":"U","APOAPSIS":"504.323","PERIAPSIS":"503.387","TIME_SYSTEM":"UTC","TLE_LINE2":"2 50188  53.2223  65.0283 0000680  86.8848 273.2227 15.20658559 85094","PERIOD":"94.696","REV_AT_EPOCH":"8509","MEAN_ANOMALY":"273.2227","MEAN_MOTION":"15.20658559","RCS_SIZE":"LARGE","MEAN_MOTION_DDOT":"0.0000000000000","FILE":"3928007","REF_FRAME":"TEME","SITE":"AFWTR","EPOCH":"2023-06-08T03:29:46.963680","BSTAR":"-0.00032094000000","GP_ID":"233470774","SEMIMAJOR_AXIS":"6881.990","CENTER_NAME":"EARTH","EPHEMERIS_TYPE":"0","OBJECT_TYPE":"PAYLOAD","ECCENTRICITY":"0.00006800","DECAY_DATE":null,"LAUNCH_DATE":"2021-12-18","TLE_LINE1":"1 50188U 21125AJ  23159.14568245 -.00007451  00000-0 -32094-3 0  9998","MEAN_MOTION_DOT":"-0.00007451","OBJECT_NAME":"STARLINK-3275","INCLINATION":"53.2223","MEAN_ELEMENT_THEORY":"SGP4","NORAD_CAT_ID":"50188","RA_OF_ASC_NODE":"65.0283","ARG_OF_PERICENTER":"86.8848"},{"TLE_LINE1":"1 50189U 21125AK  23159.19779967  .00000299  00000-0  36882-4 0  9990","LAUNCH_DATE":"2021-12-18","MEAN_MOTION_DOT":"0.00000299","OBJECT_NAME":"STARLINK-3276","INCLINATION":"53.2176","OBJECT_TYPE":"PAYLOAD","ECCENTRICITY":"0.00011970","DECAY_DATE":null,"ARG_OF_PERICENTER":"83.2746","MEAN_ELEMENT_THEORY":"SGP4","NORAD_CAT_ID":"50189","RA_OF_ASC_NODE":"82.9557","MEAN_ANOMALY":"276.8383","MEAN_MOTION":"15.08836357","RCS_SIZE":"LARGE","MEAN_MOTION_DDOT":"0.0000000000000","FILE":"3928163","REF_FRAME":"TEME","COUNTRY_CODE":"US","ELEMENT_SET_NO":"999","OBJECT_ID":"2021-125AK","CLASSIFICATION_TYPE":"U","APOAPSIS":"540.585","PERIAPSIS":"538.928","TIME_SYSTEM":"UTC","PERIOD":"95.438","TLE_LINE2":"2 50189  53.2176  82.9557 0001197  83.2746 276.8383 15.08836357 84323","REV_AT_EPOCH":"8432","SEMIMAJOR_AXIS":"6917.892","CENTER_NAME":"EARTH","EPHEMERIS_TYPE":"0","SITE":"AFWTR","EPOCH":"2023-06-08T04:44:49.891488","BSTAR":"0.00003688200000","GP_ID":"233480308"},{"CENTER_NAME":"EARTH","EPHEMERIS_TYPE":"0","SEMIMAJOR_AXIS":"6917.899","GP_ID":"233471774","EPOCH":"2023-06-08T01:07:30.708480","SITE":"AFWTR","BSTAR":"0.00001711000000","REF_FRAME":"TEME","FILE":"3928007","MEAN_MOTION_DDOT":"0.0000000000000","MEAN_MOTION":"15.08834052","MEAN_ANOMALY":"278.6644","RCS_SIZE":"LARGE","TIME_SYSTEM":"UTC","PERIOD":"95.438","TLE_LINE2":"2 50190  53.2177  73.6250 0001083  81.4471 278.6644 15.08834052 84917","REV_AT_EPOCH":"8491","OBJECT_ID":"2021-125AL","ELEMENT_SET_NO":"999","COUNTRY_CODE":"US","APOAPSIS":"540.513","PERIAPSIS":"539.014","CLASSIFICATION_TYPE":"U","ARG_OF_PERICENTER":"81.4471","NORAD_CAT_ID":"50190","RA_OF_ASC_NODE":"73.6250","MEAN_ELEMENT_THEORY":"SGP4","OBJECT_NAME":"STARLINK-3268","INCLINATION":"53.2177","LAUNCH_DATE":"2021-12-18","TLE_LINE1":"1 50190U 21125AL  23159.04688320 -.00000015  00000-0  17110-4 0  9998","MEAN_MOTION_DOT":"-0.00000015","ECCENTRICITY":"0.00010830","DECAY_DATE":null,"OBJECT_TYPE":"PAYLOAD"},{"REF_FRAME":"TEME","FILE":"3928007","MEAN_MOTION_DDOT":"0.0000000000000","RCS_SIZE":"LARGE","MEAN_MOTION":"15.08844571","MEAN_ANOMALY":"270.4153","TLE_LINE2":"2 50191  53.2167  93.2856 0001186  89.6975 270.4153 15.08844571 84642","REV_AT_EPOCH":"8464","PERIOD":"95.437","TIME_SYSTEM":"UTC","APOAPSIS":"540.552","PERIAPSIS":"538.911","CLASSIFICATION_TYPE":"U","ELEMENT_SET_NO":"999","OBJECT_ID":"2021-125AM","COUNTRY_CODE":"US","EPHEMERIS_TYPE":"0","CENTER_NAME":"EARTH","SEMIMAJOR_AXIS":"6917.866","GP_ID":"233471025","BSTAR":"0.00018982000000","EPOCH":"2023-06-08T02:56:08.150784","SITE":"AFWTR","INCLINATION":"53.2167","OBJECT_NAME":"STARLINK-3273","MEAN_MOTION_DOT":"0.00002735","TLE_LINE1":"1 50191U 21125AM  23159.12231656  .00002735  00000-0  18982-3 0  9991","LAUNCH_DATE":"2021-12-18","DECAY_DATE":null,"ECCENTRICITY":"0.00011860","OBJECT_TYPE":"PAYLOAD","ARG_OF_PERICENTER":"89.6975","RA_OF_ASC_NODE":"93.2856","NORAD_CAT_ID":"50191","MEAN_ELEMENT_THEORY":"SGP4"},{"SEMIMAJOR_AXIS":"6917.885","CENTER_NAME":"EARTH","EPHEMERIS_TYPE":"0","EPOCH":"2023-06-08T04:12:58.758912","SITE":"AFWTR","BSTAR":"-0.00000441780000","GP_ID":"233471275","MEAN_MOTION":"15.08838473","MEAN_ANOMALY":"266.3826","RCS_SIZE":"LARGE","REF_FRAME":"TEME","MEAN_MOTION_DDOT":"0.0000000000000","FILE":"3928007","ELEMENT_SET_NO":"999","OBJECT_ID":"2021-125AN","COUNTRY_CODE":"US","APOAPSIS":"540.564","PERIAPSIS":"538.936","CLASSIFICATION_TYPE":"U","TIME_SYSTEM":"UTC","TLE_LINE2":"2 50192  53.2184  73.0443 0001177  93.7301 266.3826 15.08838473 84936","PERIOD":"95.438","REV_AT_EPOCH":"8493","ARG_OF_PERICENTER":"93.7301","MEAN_ELEMENT_THEORY":"SGP4","NORAD_CAT_ID":"50192","RA_OF_ASC_NODE":"73.0443","LAUNCH_DATE":"2021-12-18","TLE_LINE1":"1 50192U 21125AN  23159.17568008 -.00000358  00000-0 -44178-5 0  9990","MEAN_MOTION_DOT":"-0.00000358","OBJECT_NAME":"STARLINK-3259","INCLINATION":"53.2184","OBJECT_TYPE":"PAYLOAD","ECCENTRICITY":"0.00011770","DECAY_DATE":null},{"RCS_SIZE":"LARGE","MEAN_MOTION":"15.08838326","MEAN_ANOMALY":"271.9361","REF_FRAME":"TEME","MEAN_MOTION_DDOT":"0.0000000000000","FILE":"3928007","PERIAPSIS":"539.138","APOAPSIS":"540.363","CLASSIFICATION_TYPE":"U","ELEMENT_SET_NO":"999","OBJECT_ID":"2021-125AP","COUNTRY_CODE":"US","REV_AT_EPOCH":"8496","TLE_LINE2":"2 50193  53.2180  73.5921 0000886  88.1733 271.9361 15.08838326 84968","PERIOD":"95.438","TIME_SYSTEM":"UTC","SEMIMAJOR_AXIS":"6917.886","EPHEMERIS_TYPE":"0","CENTER_NAME":"EARTH","BSTAR":"0.00005545900000","EPOCH":"2023-06-08T01:18:06.152832","SITE":"AFWTR","GP_ID":"233472027","MEAN_MOTION_DOT":"0.00000595","LAUNCH_DATE":"2021-12-18","TLE_LINE1":"1 50193U 21125AP  23159.05423788  .00000595  00000-0  55459-4 0  9997","INCLINATION":"53.2180","OBJECT_NAME":"STARLINK-3261","OBJECT_TYPE":"PAYLOAD","ECCENTRICITY":"0.00008860","DECAY_DATE":null,"ARG_OF_PERICENTER":"88.1733","MEAN_ELEMENT_THEORY":"SGP4","RA_OF_ASC_NODE":"73.5921","NORAD_CAT_ID":"50193"}];
